OBJECT_NAME,OBJECT_ID,EPOCH,MEAN_MOTION,ECCENTRICITY,INCLINATION,RA_OF_ASC_NODE,ARG_OF_PERICENTER,MEAN_ANOMALY,EPHEMERIS_TYPE,CLASSIFICATION_TYPE,NORAD_CAT_ID,ELEMENT_SET_NO,REV_AT_EPOCH,BSTAR,MEAN_MOTION_DOT,MEAN_MOTION_DDOT
STARLINK-11307 [DTC],2024-171L,2024-10-05T22:00:00.999936,15.82053864,8.79e-05,53.1622,219.6494,127.3355,18.1025,0,U,61210,999,366,-0.0048542,-0.00912202,0
STARLINK-11298 [DTC],2024-171M,2024-10-06T04:00:01.999584,15.82539992,6.14e-05,53.1617,218.3593,99.6662,48.2812,0,U,61211,999,368,-0.0046563,-0.00896873,0
STARLINK-11310 [DTC],2024-171N,2024-10-06T04:00:01.999584,15.83583633,7.56e-05,53.1614,218.3272,119.062,44.4311,0,U,61212,999,368,-0.0044463,-0.00899787,0
STARLINK-32386,2024-171P,2024-10-06T04:00:01.999584,15.64775885,0.0001004,53.1598,219.167,86.6829,26.869,0,U,61213,999,368,-0.01515,-0.01335489,0
STARLINK-32392,2024-171Q,2024-10-05T22:00:00.999936,15.65525107,0.0001116,53.1603,220.3815,91.6453,56.2284,0,U,61214,999,366,-0.014879,-0.01350013,0
STARLINK-32436,2024-171R,2024-10-06T04:00:01.999584,15.64776778,9.37e-05,53.1598,219.1629,86.4,29.0688,0,U,61215,999,368,-0.015164,-0.01336598,0
STARLINK-32425,2024-171S,2024-10-06T04:00:01.999584,15.64778051,7.87e-05,53.1599,219.1552,99.6463,19.6548,0,U,61216,999,367,-0.01519,-0.01338628,0
STARLINK-32342,2024-171T,2024-10-06T04:00:01.999584,15.64777305,9.47e-05,53.1598,219.151,103.5366,17.6809,0,U,61217,999,368,-0.015169,-0.01337019,0
STARLINK-32423,2024-171U,2024-10-06T04:00:01.999584,15.64777136,8.93e-05,53.1598,219.1472,101.3727,21.7613,0,U,61218,999,368,-0.015167,-0.0133683,0
STARLINK-32248,2024-171V,2024-10-06T04:00:01.999584,15.64777949,7.95e-05,53.1599,219.143,99.0368,26.0139,0,U,61219,999,367,-0.015188,-0.0133847,0
KINEIS-3C,2024-172A,2024-10-06T05:33:09.082368,14.77124395,6.01e-05,98.0177,6.611,22.8672,337.2565,0,U,61220,999,225,0.0019966,0.00014086,0
KINEIS-3D,2024-172B,2024-10-06T05:32:06.840672,14.77195038,5.81e-05,98.0177,6.6123,338.8337,21.2848,0,U,61221,999,225,0.0020113,0.00014214,0
KINEIS-3E,2024-172C,2024-10-06T05:30:49.656960,14.77279015,5.62e-05,98.0177,6.6137,147.9836,212.1408,0,U,61222,999,225,0.0020219,0.00014318,0
KINEIS-3A,2024-172D,2024-10-06T05:26:37.756896,14.7756303,0.0001527,98.0177,6.6176,249.3119,110.7927,0,U,61223,999,225,0.0019787,0.00014104,0
KINEIS-3B,2024-172E,2024-10-05T21:16:54.291936,14.77703487,0.0002035,98.0177,6.2825,221.0276,139.0782,0,U,61224,999,219,0.0023357,0.0001672,0
2024-172G,2024-172G,2024-10-06T05:37:06.683232,14.90016156,0.0056336,98.0141,6.9191,0.1142,0.0078,0,U,61226,999,222,0.0013034,0.00012912,0
2024-173A,2024-173A,2024-10-06T05:26:41.421984,15.24866521,0.0010969,97.4067,352.9061,226.3307,133.7023,0,U,61227,999,183,0.0019969,0.00049926,0
2024-173B,2024-173B,2024-10-06T03:49:24.408192,15.25174474,0.0012062,97.4034,352.839,230.8858,129.1308,0,U,61228,999,182,0.0021996,0.0005557,0
2024-173C,2024-173C,2024-10-06T05:24:47.654784,15.24979458,0.001144,97.4041,352.9043,231.0793,128.9426,0,U,61229,999,183,0.0018985,0.00047615,0
2024-173D,2024-173D,2024-10-06T04:05:35.679840,15.25090882,0.0011596,97.4051,352.8527,231.3241,189.9854,0,U,61230,999,182,0.0022241,0.00056043,0
2024-173E,2024-173E,2024-10-06T04:07:34.057344,15.24343168,0.0012003,97.398,352.8367,231.0751,185.6137,0,U,61231,999,176,0.00027373,6.64e-05,0
2024-173F,2024-173F,2024-10-06T05:23:02.923296,15.25179675,0.0011608,97.4054,352.9075,233.2603,126.7569,0,U,61232,999,179,0.0019688,0.00049693,0
2024-173G,2024-173G,2024-10-06T05:20:40.765056,15.25546198,0.0011763,97.404,352.9075,235.8283,124.184,0,U,61233,999,179,0.0024463,0.00062554,0
2024-173H,2024-173H,2024-10-06T03:45:23.863680,15.25699026,0.0011813,97.4054,352.8452,236.623,123.3878,0,U,61234,999,178,0.0027785,0.0007147,0
2024-173K,2024-173K,2024-10-06T05:03:49.938624,15.26962391,0.0020473,97.4407,352.992,256.2916,103.6044,0,U,61236,999,185,0.0021374,0.00057214,0
2024-173L,2024-173L,2024-10-06T04:48:52.017120,15.3636381,0.0086578,97.6777,353.6087,271.8511,87.2818,0,U,61237,999,189,0.0011733,0.00047306,0
2024-174A,2024-174A,2024-10-06T04:14:10.789728,15.16569904,0.001366,97.4562,285.277,246.7325,113.247,0,U,61238,999,170,0.000783,0.00015272,0
2024-174B,2024-174B,2024-10-06T04:15:04.547808,15.16526395,0.0014044,97.4552,285.2749,243.2176,116.7621,0,U,61239,999,169,0.00098485,0.00019215,0
2024-174C,2024-174C,2024-10-06T04:19:23.285568,15.16075408,0.0013558,97.4504,285.2647,237.3844,122.608,0,U,61240,999,166,0.00080355,0.00015455,0
2024-174D,2024-174D,2024-10-05T12:26:40.715520,15.16324544,0.001371,97.4525,284.6216,242.6364,117.3474,0,U,61241,999,156,0.0010736,0.00020835,0
2024-174E,2024-174E,2024-10-06T04:16:21.093024,15.16356163,0.0014739,97.457,285.2762,241.0879,118.8876,0,U,61242,999,165,0.00061935,0.00011992,0
