STARLINK-11307 [DTC]    
1 61210U 24171L   24279.91667824 -.00912202  00000+0 -48542-2 0  9994
2 61210  53.1622 219.6494 0000879 127.3355  18.1025 15.82053864  3660
STARLINK-11298 [DTC]    
1 61211U 24171M   24280.16668981 -.00896873  00000+0 -46563-2 0  9995
2 61211  53.1617 218.3593 0000614  99.6662  48.2812 15.82539992  3681
STARLINK-11310 [DTC]    
1 61212U 24171N   24280.16668981 -.00899787  00000+0 -44463-2 0  9990
2 61212  53.1614 218.3272 0000756 119.0620  44.4311 15.83583633  3685
STARLINK-32386          
1 61213U 24171P   24280.16668981 -.01335489  00000+0 -15150-1 0  9996
2 61213  53.1598 219.1670 0001004  86.6829  26.8690 15.64775885  3680
STARLINK-32392          
1 61214U 24171Q   24279.91667824 -.01350013  00000+0 -14879-1 0  9990
2 61214  53.1603 220.3815 0001116  91.6453  56.2284 15.65525107  3661
STARLINK-32436          
1 61215U 24171R   24280.16668981 -.01336598  00000+0 -15164-1 0  9995
2 61215  53.1598 219.1629 0000937  86.4000  29.0688 15.64776778  3683
STARLINK-32425          
1 61216U 24171S   24280.16668981 -.01338628  00000+0 -15190-1 0  9991
2 61216  53.1599 219.1552 0000787  99.6463  19.6548 15.64778051  3677
STARLINK-32342          
1 61217U 24171T   24280.16668981 -.01337019  00000+0 -15169-1 0  9991
2 61217  53.1598 219.1510 0000947 103.5366  17.6809 15.64777305  3686
STARLINK-32423          
1 61218U 24171U   24280.16668981 -.01336830  00000+0 -15167-1 0  9990
2 61218  53.1598 219.1472 0000893 101.3727  21.7613 15.64777136  3682
STARLINK-32248          
1 61219U 24171V   24280.16668981 -.01338470  00000+0 -15188-1 0  9996
2 61219  53.1599 219.1430 0000795  99.0368  26.0139 15.64777949  3675
KINEIS-3C               
1 61220U 24172A   24280.23135512  .00014086  00000+0  19966-2 0  9996
2 61220  98.0177   6.6110 0000601  22.8672 337.2565 14.77124395  2256
KINEIS-3D               
1 61221U 24172B   24280.23063473  .00014214  00000+0  20113-2 0  9992
2 61221  98.0177   6.6123 0000581 338.8337  21.2848 14.77195038  2252
KINEIS-3E               
1 61222U 24172C   24280.22974140  .00014318  00000+0  20219-2 0  9996
2 61222  98.0177   6.6137 0000562 147.9836 212.1408 14.77279015  2251
KINEIS-3A               
1 61223U 24172D   24280.22682589  .00014104  00000+0  19787-2 0  9991
2 61223  98.0177   6.6176 0001527 249.3119 110.7927 14.77563030  2250
KINEIS-3B               
1 61224U 24172E   24279.88673949  .00016720  00000+0  23357-2 0  9996
2 61224  98.0177   6.2825 0002035 221.0276 139.0782 14.77703487  2192
2024-172G               
1 61226U 24172G   24280.23410513  .00012912  00000+0  13034-2 0  9995
2 61226  98.0141   6.9191 0056336   0.1142   0.0078 14.90016156  2223
2024-173A               
1 61227U 24173A   24280.22686831  .00049926  00000+0  19969-2 0  9992
2 61227  97.4067 352.9061 0010969 226.3307 133.7023 15.24866521  1838
2024-173B               
1 61228U 24173B   24280.15931028  .00055570  00000+0  21996-2 0  9991
2 61228  97.4034 352.8390 0012062 230.8858 129.1308 15.25174474  1828
2024-173C               
1 61229U 24173C   24280.22555156  .00047615  00000+0  18985-2 0  9999
2 61229  97.4041 352.9043 0011440 231.0793 128.9426 15.24979458  1836
2024-173D               
1 61230U 24173D   24280.17055185  .00056043  00000+0  22241-2 0  9997
2 61230  97.4051 352.8527 0011596 231.3241 189.9854 15.25090882  1825
2024-173E               
1 61231U 24173E   24280.17192196  .00006640  00000+0  27373-3 0  9992
2 61231  97.3980 352.8367 0012003 231.0751 185.6137 15.24343168  1762
2024-173F               
1 61232U 24173F   24280.22433939  .00049693  00000+0  19688-2 0  9996
2 61232  97.4054 352.9075 0011608 233.2603 126.7569 15.25179675  1792
2024-173G               
1 61233U 24173G   24280.22269404  .00062554  00000+0  24463-2 0  9999
2 61233  97.4040 352.9075 0011763 235.8283 124.1840 15.25546198  1794
2024-173H               
1 61234U 24173H   24280.15652620  .00071470  00000+0  27785-2 0  9995
2 61234  97.4054 352.8452 0011813 236.6230 123.3878 15.25699026  1785
2024-173K               
1 61236U 24173K   24280.21099466  .00057214  00000+0  21374-2 0  9995
2 61236  97.4407 352.9920 0020473 256.2916 103.6044 15.26962391  1854
2024-173L               
1 61237U 24173L   24280.20060205  .00047306  00000+0  11733-2 0  9993
2 61237  97.6777 353.6087 0086578 271.8511  87.2818 15.36363810  1893
2024-174A               
1 61238U 24174A   24280.17651377  .00015272  00000+0  78300-3 0  9998
2 61238  97.4562 285.2770 0013660 246.7325 113.2470 15.16569904  1703
2024-174B               
1 61239U 24174B   24280.17713597  .00019215  00000+0  98485-3 0  9999
2 61239  97.4552 285.2749 0014044 243.2176 116.7621 15.16526395  1693
2024-174C               
1 61240U 24174C   24280.18013062  .00015455  00000+0  80355-3 0  9991
2 61240  97.4504 285.2647 0013558 237.3844 122.6080 15.16075408  1660
2024-174D               
1 61241U 24174D   24279.51852680  .00020835  00000+0  10736-2 0  9997
2 61241  97.4525 284.6216 0013710 242.6364 117.3474 15.16324544  1560
2024-174E               
1 61242U 24174E   24280.17802191  .00011992  00000+0  61935-3 0  9996
2 61242  97.4570 285.2762 0014739 241.0879 118.8876 15.16356163  1654
